{
  "type": "FeatureCollection",
  "features": [
    {
      "type": "Feature",
      "properties": {
        "norad_id": 43823,
        "name": "GEO-KOMPSAT-2A",
        "group": "weather",
        "lat": 0.046918872162223825,
        "lon": 170.6903548277273,
        "alt_km": 35785.9038564455,
        "timestamp": "2025-12-09T21:34:11.050291+00:00",
        "meta_object_name": "GEO-KOMPSAT-2A",
        "meta_object_id": "2018-100A",
        "meta_epoch": "2025-12-08T09:04:40.751616",
        "meta_mean_motion": 1.00270893,
        "meta_eccentricity": 1.774e-05,
        "meta_inclination": 0.0576,
        "meta_ra_of_asc_node": 113.8278,
        "meta_arg_of_pericenter": 87.1447,
        "meta_mean_anomaly": 140.8536,
        "meta_ephemeris_type": 0,
        "meta_classification_type": "U",
        "meta_norad_cat_id": 43823,
        "meta_element_set_no": 999,
        "meta_rev_at_epoch": 2571,
        "meta_bstar": 0,
        "meta_mean_motion_dot": -3.41e-06,
        "meta_mean_motion_ddot": 0,
        "tle_line1": "1 43823U 18100A   25342.37824944 -.00000341  00000+0  00000+0 0  9994",
        "tle_line2": "2 43823   0.0576 113.8278 0000177  87.1447 140.8536  1.00270893 25718"
      },
      "geometry": {
        "type": "Point",
        "coordinates": [
          170.6903548277273,
          0.046918872162223825
        ]
      }
    },
    {
      "type": "Feature",
      "properties": {
        "norad_id": 44387,
        "name": "METEOR-M2 2",
        "group": "weather",
        "lat": -35.719146047712705,
        "lon": 137.12484092802296,
        "alt_km": 816.7588889845292,
        "timestamp": "2025-12-09T21:34:11.050302+00:00",
        "meta_object_name": "METEOR-M2 2",
        "meta_object_id": "2019-038A",
        "meta_epoch": "2025-12-09T13:48:51.101280",
        "meta_mean_motion": 14.24289035,
        "meta_eccentricity": 0.00011048,
        "meta_inclination": 98.897,
        "meta_ra_of_asc_node": 323.2652,
        "meta_arg_of_pericenter": 154.4538,
        "meta_mean_anomaly": 205.6695,
        "meta_ephemeris_type": 0,
        "meta_classification_type": "U",
        "meta_norad_cat_id": 44387,
        "meta_element_set_no": 999,
        "meta_rev_at_epoch": 33430,
        "meta_bstar": 0.00012173569,
        "meta_mean_motion_dot": 2.35e-06,
        "meta_mean_motion_ddot": 0,
        "tle_line1": "1 44387U 19038A   25343.57559145  .00000235  00000+0  12174-3 0  9992",
        "tle_line2": "2 44387  98.8970 323.2652 0001104 154.4538 205.6695 14.24289035334302"
      },
      "geometry": {
        "type": "Point",
        "coordinates": [
          137.12484092802296,
          -35.719146047712705
        ]
      }
    },
    {
      "type": "Feature",
      "properties": {
        "norad_id": 47719,
        "name": "ARKTIKA-M 1",
        "group": "weather",
        "lat": 59.7817569517597,
        "lon": -155.7752197421849,
        "alt_km": 35428.35313085442,
        "timestamp": "2025-12-09T21:34:11.050329+00:00",
        "meta_object_name": "ARKTIKA-M 1",
        "meta_object_id": "2021-016A",
        "meta_epoch": "2025-12-09T14:03:23.859648",
        "meta_mean_motion": 2.00631311,
        "meta_eccentricity": 0.72025383,
        "meta_inclination": 63.1769,
        "meta_ra_of_asc_node": 84.4506,
        "meta_arg_of_pericenter": 269.1117,
        "meta_mean_anomaly": 15.6235,
        "meta_ephemeris_type": 0,
        "meta_classification_type": "U",
        "meta_norad_cat_id": 47719,
        "meta_element_set_no": 999,
        "meta_rev_at_epoch": 3498,
        "meta_bstar": 0,
        "meta_mean_motion_dot": -6.1e-07,
        "meta_mean_motion_ddot": 0,
        "tle_line1": "1 47719U 21016A   25343.58569282 -.00000061  00000+0  00000+0 0  9996",
        "tle_line2": "2 47719  63.1769  84.4506 7202538 269.1117  15.6235  2.00631311 34986"
      },
      "geometry": {
        "type": "Point",
        "coordinates": [
          -155.7752197421849,
          59.7817569517597
        ]
      }
    },
    {
      "type": "Feature",
      "properties": {
        "norad_id": 49008,
        "name": "FENGYUN 3E",
        "group": "weather",
        "lat": -40.0099919932506,
        "lon": 157.02760717633493,
        "alt_km": 832.0733458425875,
        "timestamp": "2025-12-09T21:34:11.050343+00:00",
        "meta_object_name": "FENGYUN 3E",
        "meta_object_id": "2021-062A",
        "meta_epoch": "2025-12-09T13:46:10.102656",
        "meta_mean_motion": 14.19878748,
        "meta_eccentricity": 6.101e-05,
        "meta_inclination": 98.7473,
        "meta_ra_of_asc_node": 344.132,
        "meta_arg_of_pericenter": 291.1226,
        "meta_mean_anomaly": 68.9885,
        "meta_ephemeris_type": 0,
        "meta_classification_type": "U",
        "meta_norad_cat_id": 49008,
        "meta_element_set_no": 999,
        "meta_rev_at_epoch": 22967,
        "meta_bstar": 1.795621e-05,
        "meta_mean_motion_dot": -6e-08,
        "meta_mean_motion_ddot": 0,
        "tle_line1": "1 49008U 21062A   25343.57372804 -.00000006  00000+0  17956-4 0  9993",
        "tle_line2": "2 49008  98.7473 344.1320 0000610 291.1226  68.9885 14.19878748229675"
      },
      "geometry": {
        "type": "Point",
        "coordinates": [
          157.02760717633493,
          -40.0099919932506
        ]
      }
    },
    {
      "type": "Feature",
      "properties": {
        "norad_id": 51850,
        "name": "GOES 18",
        "group": "weather",
        "lat": -0.014045663455642744,
        "lon": -94.58136482373031,
        "alt_km": 35783.74320500302,
        "timestamp": "2025-12-09T21:34:11.050362+00:00",
        "meta_object_name": "GOES 18",
        "meta_object_id": "2022-021A",
        "meta_epoch": "2025-12-09T12:00:33.174144",
        "meta_mean_motion": 1.00271048,
        "meta_eccentricity": 7.262e-05,
        "meta_inclination": 0.0386,
        "meta_ra_of_asc_node": 155.385,
        "meta_arg_of_pericenter": 145.2667,
        "meta_mean_anomaly": 180.9753,
        "meta_ephemeris_type": 0,
        "meta_classification_type": "U",
        "meta_norad_cat_id": 51850,
        "meta_element_set_no": 999,
        "meta_rev_at_epoch": 469,
        "meta_bstar": 0,
        "meta_mean_motion_dot": 9.9e-07,
        "meta_mean_motion_ddot": 0,
        "tle_line1": "1 51850U 22021A   25343.50038396  .00000099  00000+0  00000+0 0  9993",
        "tle_line2": "2 51850   0.0386 155.3850 0000726 145.2667 180.9753  1.00271048  4696"
      },
      "geometry": {
        "type": "Point",
        "coordinates": [
          -94.58136482373031,
          -0.014045663455642744
        ]
      }
    },
    {
      "type": "Feature",
      "properties": {
        "norad_id": 54234,
        "name": "NOAA 21 (JPSS-2)",
        "group": "weather",
        "lat": -49.80591747775476,
        "lon": 89.74454573470868,
        "alt_km": 835.4871002463942,
        "timestamp": "2025-12-09T21:34:11.050375+00:00",
        "meta_object_name": "NOAA 21 (JPSS-2)",
        "meta_object_id": "2022-150A",
        "meta_epoch": "2025-12-09T13:43:13.586592",
        "meta_mean_motion": 14.19522943,
        "meta_eccentricity": 0.00023394,
        "meta_inclination": 98.7458,
        "meta_ra_of_asc_node": 279.9195,
        "meta_arg_of_pericenter": 44.1938,
        "meta_mean_anomaly": 315.9425,
        "meta_ephemeris_type": 0,
        "meta_classification_type": "U",
        "meta_norad_cat_id": 54234,
        "meta_element_set_no": 999,
        "meta_rev_at_epoch": 15964,
        "meta_bstar": 0.00011991417,
        "meta_mean_motion_dot": 2.09e-06,
        "meta_mean_motion_ddot": 0,
        "tle_line1": "1 54234U 22150A   25343.57168503  .00000209  00000+0  11991-3 0  9994",
        "tle_line2": "2 54234  98.7458 279.9195 0002339  44.1938 315.9425 14.19522943159643"
      },
      "geometry": {
        "type": "Point",
        "coordinates": [
          89.74454573470868,
          -49.80591747775476
        ]
      }
    },
    {
      "type": "Feature",
      "properties": {
        "norad_id": 54743,
        "name": "METEOSAT-12 (MTG-I1)",
        "group": "weather",
        "lat": 0.1576513331353771,
        "lon": 42.2212124610073,
        "alt_km": 35790.22773986241,
        "timestamp": "2025-12-09T21:34:11.050387+00:00",
        "meta_object_name": "METEOSAT-12 (MTG-I1)",
        "meta_object_id": "2022-170C",
        "meta_epoch": "2025-12-09T06:50:38.880672",
        "meta_mean_motion": 1.00275177,
        "meta_eccentricity": 0.00014445,
        "meta_inclination": 0.7267,
        "meta_ra_of_asc_node": 31.0604,
        "meta_arg_of_pericenter": 223.8448,
        "meta_mean_anomaly": 285.8144,
        "meta_ephemeris_type": 0,
        "meta_classification_type": "U",
        "meta_norad_cat_id": 54743,
        "meta_element_set_no": 999,
        "meta_rev_at_epoch": 1107,
        "meta_bstar": 0,
        "meta_mean_motion_dot": -4e-08,
        "meta_mean_motion_ddot": 0,
        "tle_line1": "1 54743U 22170C   25343.28517223 -.00000004  00000+0  00000+0 0  9995",
        "tle_line2": "2 54743   0.7267  31.0604 0001444 223.8448 285.8144  1.00275177 11076"
      },
      "geometry": {
        "type": "Point",
        "coordinates": [
          42.2212124610073,
          0.1576513331353771
        ]
      }
    }
  ]
}